STARLINK-2241
1 28586C 21041AK  21325.12255519 -.00001906  00000-0 -12774-3 0  3257
2 28586  53.0549 347.6787 0001668  59.6158  34.1395 15.06388516    15
